[
    {
        "Altitude(m)": 566335.4918149757,
        "Argument of Periapsis(deg)": -0.015068773855314936,
        "Eccentricity": 0.0,
        "Inclination(deg)": 97.0,
        "Latitude(deg)": 0.9509289145409371,
        "Longitude(deg)": -161.43684535100667,
        "Mean Anomaly(deg)": 178.9404955127917,
        "RAAN(deg)": 120.00396470241235,
        "Satellite Name": "Starlink Shell 3 1841",
        "Satellite Number": 1841,
        "Semi-Major Axis(m)": 6938478.169268562,
        "Time(s)": 380
    },
    {
        "Altitude(m)": 566412.1277658883,
        "Argument of Periapsis(deg)": -0.015465320535717962,
        "Eccentricity": 0.0,
        "Inclination(deg)": 97.0,
        "Latitude(deg)": 0.32652319246825634,
        "Longitude(deg)": -161.55478141447776,
        "Mean Anomaly(deg)": 179.56597171049674,
        "RAAN(deg)": 120.00406903668635,
        "Satellite Name": "Starlink Shell 3 1841",
        "Satellite Number": 1841,
        "Semi-Major Axis(m)": 6938478.169268562,
        "Time(s)": 390
    },
    {
        "Altitude(m)": 566493.0629215358,
        "Argument of Periapsis(deg)": -0.015861867216120987,
        "Eccentricity": 0.0,
        "Inclination(deg)": 97.0,
        "Latitude(deg)": -0.29786943198657057,
        "Longitude(deg)": -161.67270651458955,
        "Mean Anomaly(deg)": 180.19144790820178,
        "RAAN(deg)": 120.00417337096037,
        "Satellite Name": "Starlink Shell 3 1841",
        "Satellite Number": 1841,
        "Semi-Major Axis(m)": 6938478.169268562,
        "Time(s)": 400
    },
    {
        "Altitude(m)": 566578.2873831686,
        "Argument of Periapsis(deg)": -0.01625841389652401,
        "Eccentricity": 0.0,
        "Inclination(deg)": 97.0,
        "Latitude(deg)": -0.9222459622415432,
        "Longitude(deg)": -161.7906381975564,
        "Mean Anomaly(deg)": 180.8169241059068,
        "RAAN(deg)": 120.00427770523437,
        "Satellite Name": "Starlink Shell 3 1841",
        "Satellite Number": 1841,
        "Semi-Major Axis(m)": 6938478.169268562,
        "Time(s)": 410
    },
    {
        "Altitude(m)": 566667.7891737329,
        "Argument of Periapsis(deg)": -0.016654960576927034,
        "Eccentricity": 0.0,
        "Inclination(deg)": 97.0,
        "Latitude(deg)": -1.5466034039441507,
        "Longitude(deg)": -161.90859451953395,
        "Mean Anomaly(deg)": 181.44240030361183,
        "RAAN(deg)": 120.00438203950834,
        "Satellite Name": "Starlink Shell 3 1841",
        "Satellite Number": 1841,
        "Semi-Major Axis(m)": 6938478.169268562,
        "Time(s)": 420
    },
    {
        "Altitude(m)": 566761.5542405911,
        "Argument of Periapsis(deg)": -0.01705150725733006,
        "Eccentricity": 0.0,
        "Inclination(deg)": 97.0,
        "Latitude(deg)": -2.170938764901099,
        "Longitude(deg)": -162.02659355899067,
        "Mean Anomaly(deg)": 182.06787650131687,
        "RAAN(deg)": 120.00448637378237,
        "Satellite Name": "Starlink Shell 3 1841",
        "Satellite Number": 1841,
        "Semi-Major Axis(m)": 6938478.169268562,
        "Time(s)": 430
    },
    {
        "Altitude(m)": 566859.5664593317,
        "Argument of Periapsis(deg)": -0.017448053937733084,
        "Eccentricity": 0.0,
        "Inclination(deg)": 97.0,
        "Latitude(deg)": -2.7952490550045623,
        "Longitude(deg)": -162.144652929123,
        "Mean Anomaly(deg)": 182.6933526990219,
        "RAAN(deg)": 120.00459070805638,
        "Satellite Name": "Starlink Shell 3 1841",
        "Satellite Number": 1841,
        "Semi-Major Axis(m)": 6938478.169268562,
        "Time(s)": 440
    },
    {
        "Altitude(m)": 566961.8076385716,
        "Argument of Periapsis(deg)": -0.017844600618136107,
        "Eccentricity": 0.0,
        "Inclination(deg)": 97.0,
        "Latitude(deg)": -3.41953128614837,
        "Longitude(deg)": -162.26279080321942,
        "Mean Anomaly(deg)": 183.31882889672704,
        "RAAN(deg)": 120.00469504233038,
        "Satellite Name": "Starlink Shell 3 1841",
        "Satellite Number": 1841,
        "Semi-Major Axis(m)": 6938478.169268562,
        "Time(s)": 450
    },
    {
        "Altitude(m)": 567068.2575258915,
        "Argument of Periapsis(deg)": -0.018241147298539134,
        "Eccentricity": 0.0,
        "Inclination(deg)": 97.0,
        "Latitude(deg)": -4.043782472137255,
        "Longitude(deg)": -162.3810254272603,
        "Mean Anomaly(deg)": 183.94430509443202,
        "RAAN(deg)": 120.00479937660441,
        "Satellite Name": "Starlink Shell 3 1841",
        "Satellite Number": 1841,
        "Semi-Major Axis(m)": 6938478.169268562,
        "Time(s)": 460
    },
    {
        "Altitude(m)": 567178.8938147344,
        "Argument of Periapsis(deg)": -0.018637693978942157,
        "Eccentricity": 0.0,
        "Inclination(deg)": 97.0,
        "Latitude(deg)": -4.667999628585058,
        "Longitude(deg)": -162.49937463266113,
        "Mean Anomaly(deg)": 184.56978129213707,
        "RAAN(deg)": 120.00490371087841,
        "Satellite Name": "Starlink Shell 3 1841",
        "Satellite Number": 1841,
        "Semi-Major Axis(m)": 6938478.169268562,
        "Time(s)": 470
    },
    {
        "Altitude(m)": 567293.6921524131,
        "Argument of Periapsis(deg)": -0.019034240659345183,
        "Eccentricity": 0.0,
        "Inclination(deg)": 97.0,
        "Latitude(deg)": -5.2921797727944355,
        "Longitude(deg)": -162.6178568620648,
        "Mean Anomaly(deg)": 185.1952574898421,
        "RAAN(deg)": 120.00500804515244,
        "Satellite Name": "Starlink Shell 3 1841",
        "Satellite Number": 1841,
        "Semi-Major Axis(m)": 6938478.169268562,
        "Time(s)": 480
    },
    {
        "Altitude(m)": 567412.6261491204,
        "Argument of Periapsis(deg)": -0.019430787339748207,
        "Eccentricity": 0.0,
        "Inclination(deg)": 97.0,
        "Latitude(deg)": -5.916319923622687,
        "Longitude(deg)": -162.7364906824726,
        "Mean Anomaly(deg)": 185.82073368754712,
        "RAAN(deg)": 120.00511237942644,
        "Satellite Name": "Starlink Shell 3 1841",
        "Satellite Number": 1841,
        "Semi-Major Axis(m)": 6938478.169268562,
        "Time(s)": 490
    },
    {
        "Altitude(m)": 567535.6673879833,
        "Argument of Periapsis(deg)": -0.019827334020151237,
        "Eccentricity": 0.0,
        "Inclination(deg)": 97.0,
        "Latitude(deg)": -6.540417101327534,
        "Longitude(deg)": -162.8552942986211,
        "Mean Anomaly(deg)": 186.44620988525224,
        "RAAN(deg)": 120.00521671370045,
        "Satellite Name": "Starlink Shell 3 1841",
        "Satellite Number": 1841,
        "Semi-Major Axis(m)": 6938478.169268562,
        "Time(s)": 500
    },
    {
        "Altitude(m)": 567662.7854361434,
        "Argument of Periapsis(deg)": -0.020223880700554257,
        "Eccentricity": 0.0,
        "Inclination(deg)": 97.0,
        "Latitude(deg)": -7.164468327386688,
        "Longitude(deg)": -162.97428657951528,
        "Mean Anomaly(deg)": 187.07168608295726,
        "RAAN(deg)": 120.00532104797445,
        "Satellite Name": "Starlink Shell 3 1841",
        "Satellite Number": 1841,
        "Semi-Major Axis(m)": 6938478.169268562,
        "Time(s)": 510
    },
    {
        "Altitude(m)": 567793.9478568851,
        "Argument of Periapsis(deg)": -0.020620427380957283,
        "Eccentricity": 0.0,
        "Inclination(deg)": 97.0,
        "Latitude(deg)": -7.788470624295473,
        "Longitude(deg)": -163.09348657240795,
        "Mean Anomaly(deg)": 187.69716228066224,
        "RAAN(deg)": 120.00542538224848,
        "Satellite Name": "Starlink Shell 3 1841",
        "Satellite Number": 1841,
        "Semi-Major Axis(m)": 6938478.169268562,
        "Time(s)": 520
    },
    {
        "Altitude(m)": 567929.1202227043,
        "Argument of Periapsis(deg)": -0.021016974061360306,
        "Eccentricity": 0.0,
        "Inclination(deg)": 97.0,
        "Latitude(deg)": -8.412421015335381,
        "Longitude(deg)": -163.21291301713688,
        "Mean Anomaly(deg)": 188.32263847836734,
        "RAAN(deg)": 120.00552971652245,
        "Satellite Name": "Starlink Shell 3 1841",
        "Satellite Number": 1841,
        "Semi-Major Axis(m)": 6938478.169268562,
        "Time(s)": 530
    },
    {
        "Altitude(m)": 568068.2661294824,
        "Argument of Periapsis(deg)": -0.021413520741763333,
        "Eccentricity": 0.0,
        "Inclination(deg)": 97.0,
        "Latitude(deg)": -9.036316524308248,
        "Longitude(deg)": -163.3325853737325,
        "Mean Anomaly(deg)": 188.94811467607238,
        "RAAN(deg)": 120.00563405079647,
        "Satellite Name": "Starlink Shell 3 1841",
        "Satellite Number": 1841,
        "Semi-Major Axis(m)": 6938478.169268562,
        "Time(s)": 540
    },
    {
        "Altitude(m)": 568211.3472115742,
        "Argument of Periapsis(deg)": -0.021810067422166356,
        "Eccentricity": 0.0,
        "Inclination(deg)": 97.0,
        "Latitude(deg)": -9.66015417523916,
        "Longitude(deg)": -163.4525233375905,
        "Mean Anomaly(deg)": 189.57359087377736,
        "RAAN(deg)": 120.00573838507047,
        "Satellite Name": "Starlink Shell 3 1841",
        "Satellite Number": 1841,
        "Semi-Major Axis(m)": 6938478.169268562,
        "Time(s)": 550
    },
    {
        "Altitude(m)": 568358.3231579425,
        "Argument of Periapsis(deg)": -0.022206614102569383,
        "Eccentricity": 0.0,
        "Inclination(deg)": 97.0,
        "Latitude(deg)": -10.28393099204188,
        "Longitude(deg)": -163.572746355124,
        "Mean Anomaly(deg)": 190.19906707148252,
        "RAAN(deg)": 120.0058427193445,
        "Satellite Name": "Starlink Shell 3 1841",
        "Satellite Number": 1841,
        "Semi-Major Axis(m)": 6938478.169268562,
        "Time(s)": 560
    }
]